[{"OBJECT_NAME":"ONEWEB-0315","OBJECT_ID":"2021-075AC","EPOCH":"2025-09-11T04:21:11.181888","MEAN_MOTION":13.12443011,"ECCENTRICITY":0.0002076,"INCLINATION":87.8893,"RA_OF_ASC_NODE":46.0769,"ARG_OF_PERICENTER":90.7209,"MEAN_ANOMALY":269.4157,"EPHEMERIS_TYPE":0,"CLASSIFICATION_TYPE":"U","NORAD_CAT_ID":49101,"ELEMENT_SET_NO":999,"REV_AT_EPOCH":19857,"BSTAR":0.0010380509,"MEAN_MOTION_DOT":3.86e-6,"MEAN_MOTION_DDOT":0},{"OBJECT_NAME":"ONEWEB-0316","OBJECT_ID":"2021-075AD","EPOCH":"2025-09-11T02:02:33.400320","MEAN_MOTION":13.1868528,"ECCENTRICITY":0.0001838,"INCLINATION":87.9185,"RA_OF_ASC_NODE":30.8895,"ARG_OF_PERICENTER":93.9926,"MEAN_ANOMALY":266.1416,"EPHEMERIS_TYPE":0,"CLASSIFICATION_TYPE":"U","NORAD_CAT_ID":49102,"ELEMENT_SET_NO":999,"REV_AT_EPOCH":20042,"BSTAR":0.00080153054,"MEAN_MOTION_DOT":3.29e-6,"MEAN_MOTION_DDOT":0},{"OBJECT_NAME":"ONEWEB-0317","OBJECT_ID":"2021-075AE","EPOCH":"2025-09-11T04:11:50.603136","MEAN_MOTION":13.12443913,"ECCENTRICITY":0.00011097,"INCLINATION":87.8897,"RA_OF_ASC_NODE":46.0928,"ARG_OF_PERICENTER":118.9075,"MEAN_ANOMALY":241.2165,"EPHEMERIS_TYPE":0,"CLASSIFICATION_TYPE":"U","NORAD_CAT_ID":49103,"ELEMENT_SET_NO":999,"REV_AT_EPOCH":19859,"BSTAR":0.00086754084,"MEAN_MOTION_DOT":3.25e-6,"MEAN_MOTION_DDOT":0},{"OBJECT_NAME":"ONEWEB-0318","OBJECT_ID":"2021-075AF","EPOCH":"2025-09-11T01:57:47.836224","MEAN_MOTION":13.18686323,"ECCENTRICITY":0.0001943,"INCLINATION":87.9186,"RA_OF_ASC_NODE":30.8767,"ARG_OF_PERICENTER":94.9475,"MEAN_ANOMALY":265.1879,"EPHEMERIS_TYPE":0,"CLASSIFICATION_TYPE":"U","NORAD_CAT_ID":49104,"ELEMENT_SET_NO":999,"REV_AT_EPOCH":20038,"BSTAR":3.6794473e-5,"MEAN_MOTION_DOT":2.7e-7,"MEAN_MOTION_DDOT":0},{"OBJECT_NAME":"ONEWEB-0319","OBJECT_ID":"2021-075AG","EPOCH":"2025-09-11T04:24:50.535936","MEAN_MOTION":13.17648681,"ECCENTRICITY":0.00021809,"INCLINATION":87.9038,"RA_OF_ASC_NODE":61.378,"ARG_OF_PERICENTER":93.1069,"MEAN_ANOMALY":267.0312,"EPHEMERIS_TYPE":0,"CLASSIFICATION_TYPE":"U","NORAD_CAT_ID":49105,"ELEMENT_SET_NO":999,"REV_AT_EPOCH":19686,"BSTAR":-0.00015916155,"MEAN_MOTION_DOT":-4.9e-7,"MEAN_MOTION_DDOT":0},{"OBJECT_NAME":"ONEWEB-0323","OBJECT_ID":"2021-075AH","EPOCH":"2025-09-11T03:57:49.531104","MEAN_MOTION":13.1244402,"ECCENTRICITY":0.00024336,"INCLINATION":87.89,"RA_OF_ASC_NODE":46.0811,"ARG_OF_PERICENTER":96.987,"MEAN_ANOMALY":263.1535,"EPHEMERIS_TYPE":0,"CLASSIFICATION_TYPE":"U","NORAD_CAT_ID":49106,"ELEMENT_SET_NO":999,"REV_AT_EPOCH":19795,"BSTAR":-2.9670786e-5,"MEAN_MOTION_DOT":2.0e-8,"MEAN_MOTION_DDOT":0},{"OBJECT_NAME":"ONEWEB-0329","OBJECT_ID":"2021-075AJ","EPOCH":"2025-09-11T04:37:00.273792","MEAN_MOTION":13.17645492,"ECCENTRICITY":0.00018755,"INCLINATION":87.9035,"RA_OF_ASC_NODE":61.3802,"ARG_OF_PERICENTER":95.2209,"MEAN_ANOMALY":264.9137,"EPHEMERIS_TYPE":0,"CLASSIFICATION_TYPE":"U","NORAD_CAT_ID":49107,"ELEMENT_SET_NO":999,"REV_AT_EPOCH":19684,"BSTAR":0.0012196494,"MEAN_MOTION_DOT":4.86e-6,"MEAN_MOTION_DDOT":0},{"OBJECT_NAME":"ONEWEB-0330","OBJECT_ID":"2021-075AK","EPOCH":"2025-09-11T04:38:11.868288","MEAN_MOTION":13.17647729,"ECCENTRICITY":0.00017807,"INCLINATION":87.9038,"RA_OF_ASC_NODE":61.3837,"ARG_OF_PERICENTER":100.213,"MEAN_ANOMALY":259.9203,"EPHEMERIS_TYPE":0,"CLASSIFICATION_TYPE":"U","NORAD_CAT_ID":49108,"ELEMENT_SET_NO":999,"REV_AT_EPOCH":19688,"BSTAR":-3.5981727e-5,"MEAN_MOTION_DOT":-1.0e-8,"MEAN_MOTION_DDOT":0},{"OBJECT_NAME":"ONEWEB-0292","OBJECT_ID":"2021-083A","EPOCH":"2025-09-11T06:42:18.455328","MEAN_MOTION":13.13470502,"ECCENTRICITY":0.00019052,"INCLINATION":87.9025,"RA_OF_ASC_NODE":15.6728,"ARG_OF_PERICENTER":97.5048,"MEAN_ANOMALY":262.6297,"EPHEMERIS_TYPE":0,"CLASSIFICATION_TYPE":"U","NORAD_CAT_ID":49186,"ELEMENT_SET_NO":999,"REV_AT_EPOCH":19431,"BSTAR":-0.00058825646,"MEAN_MOTION_DOT":-2.02e-6,"MEAN_MOTION_DDOT":0},{"OBJECT_NAME":"ONEWEB-0303","OBJECT_ID":"2021-083B","EPOCH":"2025-09-11T01:53:01.888512","MEAN_MOTION":13.18688043,"ECCENTRICITY":0.00019227,"INCLINATION":87.9184,"RA_OF_ASC_NODE":30.8777,"ARG_OF_PERICENTER":95.6598,"MEAN_ANOMALY":264.4754,"EPHEMERIS_TYPE":0,"CLASSIFICATION_TYPE":"U","NORAD_CAT_ID":49187,"ELEMENT_SET_NO":999,"REV_AT_EPOCH":19319,"BSTAR":4.664116e-6,"MEAN_MOTION_DOT":1.5e-7,"MEAN_MOTION_DDOT":0},{"OBJECT_NAME":"ONEWEB-0306","OBJECT_ID":"2021-083C","EPOCH":"2025-09-11T03:28:02.554464","MEAN_MOTION":13.1868746,"ECCENTRICITY":0.00015272,"INCLINATION":87.9186,"RA_OF_ASC_NODE":30.8505,"ARG_OF_PERICENTER":99.1686,"MEAN_ANOMALY":260.9619,"EPHEMERIS_TYPE":0,"CLASSIFICATION_TYPE":"U","NORAD_CAT_ID":49188,"ELEMENT_SET_NO":999,"REV_AT_EPOCH":19324,"BSTAR":0.00016392503,"MEAN_MOTION_DOT":7.8e-7,"MEAN_MOTION_DDOT":0},{"OBJECT_NAME":"ONEWEB-0307","OBJECT_ID":"2021-083D","EPOCH":"2025-09-11T01:04:40.527264","MEAN_MOTION":13.13468908,"ECCENTRICITY":0.00015807,"INCLINATION":87.9017,"RA_OF_ASC_NODE":15.7173,"ARG_OF_PERICENTER":109.0871,"MEAN_ANOMALY":251.043,"EPHEMERIS_TYPE":0,"CLASSIFICATION_TYPE":"U","NORAD_CAT_ID":49189,"ELEMENT_SET_NO":999,"REV_AT_EPOCH":19428,"BSTAR":-8.2588408e-5,"MEAN_MOTION_DOT":-1.7e-7,"MEAN_MOTION_DDOT":0},{"OBJECT_NAME":"ONEWEB-0320","OBJECT_ID":"2021-083E","EPOCH":"2025-09-11T03:37:32.554272","MEAN_MOTION":13.18686171,"ECCENTRICITY":0.00017519,"INCLINATION":87.9184,"RA_OF_ASC_NODE":30.8772,"ARG_OF_PERICENTER":96.8436,"MEAN_ANOMALY":263.2895,"EPHEMERIS_TYPE":0,"CLASSIFICATION_TYPE":"U","NORAD_CAT_ID":49190,"ELEMENT_SET_NO":999,"REV_AT_EPOCH":19320,"BSTAR":6.854793e-5,"MEAN_MOTION_DOT":4.0e-7,"MEAN_MOTION_DDOT":0},{"OBJECT_NAME":"ONEWEB-0321","OBJECT_ID":"2021-083F","EPOCH":"2025-09-11T04:31:41.186496","MEAN_MOTION":13.20771203,"ECCENTRICITY":0.00015623,"INCLINATION":87.9274,"RA_OF_ASC_NODE":330.0532,"ARG_OF_PERICENTER":103.5013,"MEAN_ANOMALY":256.6295,"EPHEMERIS_TYPE":0,"CLASSIFICATION_TYPE":"U","NORAD_CAT_ID":49191,"ELEMENT_SET_NO":999,"REV_AT_EPOCH":20000,"BSTAR":6.0072954e-5,"MEAN_MOTION_DOT":3.7e-7,"MEAN_MOTION_DDOT":0},{"OBJECT_NAME":"ONEWEB-0322","OBJECT_ID":"2021-083G","EPOCH":"2025-09-11T06:27:40.662432","MEAN_MOTION":13.13471461,"ECCENTRICITY":0.00013339,"INCLINATION":87.9027,"RA_OF_ASC_NODE":15.6689,"ARG_OF_PERICENTER":103.8796,"MEAN_ANOMALY":256.2482,"EPHEMERIS_TYPE":0,"CLASSIFICATION_TYPE":"U","NORAD_CAT_ID":49192,"ELEMENT_SET_NO":999,"REV_AT_EPOCH":19430,"BSTAR":0.00018533969,"MEAN_MOTION_DOT":8.0e-7,"MEAN_MOTION_DDOT":0},{"OBJECT_NAME":"ONEWEB-0324","OBJECT_ID":"2021-083H","EPOCH":"2025-09-11T03:18:32.521824","MEAN_MOTION":13.18685976,"ECCENTRICITY":0.00017537,"INCLINATION":87.9186,"RA_OF_ASC_NODE":30.8595,"ARG_OF_PERICENTER":101.8446,"MEAN_ANOMALY":258.2883,"EPHEMERIS_TYPE":0,"CLASSIFICATION_TYPE":"U","NORAD_CAT_ID":49193,"ELEMENT_SET_NO":999,"REV_AT_EPOCH":19322,"BSTAR":0.00018447253,"MEAN_MOTION_DOT":8.6e-7,"MEAN_MOTION_DDOT":0},{"OBJECT_NAME":"ONEWEB-0325","OBJECT_ID":"2021-083J","EPOCH":"2025-09-10T21:55:29.707392","MEAN_MOTION":13.18687835,"ECCENTRICITY":0.00016004,"INCLINATION":87.9186,"RA_OF_ASC_NODE":30.9217,"ARG_OF_PERICENTER":95.1217,"MEAN_ANOMALY":265.0098,"EPHEMERIS_TYPE":0,"CLASSIFICATION_TYPE":"U","NORAD_CAT_ID":49194,"ELEMENT_SET_NO":999,"REV_AT_EPOCH":19320,"BSTAR":4.0620393e-5,"MEAN_MOTION_DOT":2.9e-7,"MEAN_MOTION_DDOT":0},{"OBJECT_NAME":"ONEWEB-0326","OBJECT_ID":"2021-083K","EPOCH":"2025-09-11T01:55:36.390720","MEAN_MOTION":13.18685209,"ECCENTRICITY":0.00020434,"INCLINATION":87.9186,"RA_OF_ASC_NODE":30.8765,"ARG_OF_PERICENTER":91.8578,"MEAN_ANOMALY":268.2789,"EPHEMERIS_TYPE":0,"CLASSIFICATION_TYPE":"U","NORAD_CAT_ID":49195,"ELEMENT_SET_NO":999,"REV_AT_EPOCH":19321,"BSTAR":-0.00014914113,"MEAN_MOTION_DOT":-4.6e-7,"MEAN_MOTION_DDOT":0},{"OBJECT_NAME":"ONEWEB-0327","OBJECT_ID":"2021-083L","EPOCH":"2025-09-11T01:55:12.795744","MEAN_MOTION":13.18689238,"ECCENTRICITY":0.00019983,"INCLINATION":87.9179,"RA_OF_ASC_NODE":30.9036,"ARG_OF_PERICENTER":88.651,"MEAN_ANOMALY":271.4851,"EPHEMERIS_TYPE":0,"CLASSIFICATION_TYPE":"U","NORAD_CAT_ID":49196,"ELEMENT_SET_NO":999,"REV_AT_EPOCH":19323,"BSTAR":-8.5572544e-5,"MEAN_MOTION_DOT":-2.1e-7,"MEAN_MOTION_DDOT":0},{"OBJECT_NAME":"ONEWEB-0328","OBJECT_ID":"2021-083M","EPOCH":"2025-09-11T00:43:58.332864","MEAN_MOTION":13.13471089,"ECCENTRICITY":0.00017835,"INCLINATION":87.9031,"RA_OF_ASC_NODE":15.6553,"ARG_OF_PERICENTER":102.9624,"MEAN_ANOMALY":257.1704,"EPHEMERIS_TYPE":0,"CLASSIFICATION_TYPE":"U","NORAD_CAT_ID":49197,"ELEMENT_SET_NO":999,"REV_AT_EPOCH":19425,"BSTAR":0.00067312094,"MEAN_MOTION_DOT":2.59e-6,"MEAN_MOTION_DDOT":0},{"OBJECT_NAME":"ONEWEB-0331","OBJECT_ID":"2021-083N","EPOCH":"2025-09-10T22:07:23.188224","MEAN_MOTION":13.18687449,"ECCENTRICITY":0.00020959,"INCLINATION":87.9181,"RA_OF_ASC_NODE":30.9003,"ARG_OF_PERICENTER":98.2899,"MEAN_ANOMALY":261.847,"EPHEMERIS_TYPE":0,"CLASSIFICATION_TYPE":"U","NORAD_CAT_ID":49198,"ELEMENT_SET_NO":999,"REV_AT_EPOCH":19320,"BSTAR":-1.069734e-6,"MEAN_MOTION_DOT":1.2e-7,"MEAN_MOTION_DDOT":0},{"OBJECT_NAME":"ONEWEB-0333","OBJECT_ID":"2021-083P","EPOCH":"2025-09-11T02:26:21.984576","MEAN_MOTION":13.13470991,"ECCENTRICITY":0.00016873,"INCLINATION":87.9019,"RA_OF_ASC_NODE":15.7084,"ARG_OF_PERICENTER":97.637,"MEAN_ANOMALY":262.495,"EPHEMERIS_TYPE":0,"CLASSIFICATION_TYPE":"U","NORAD_CAT_ID":49199,"ELEMENT_SET_NO":999,"REV_AT_EPOCH":19427,"BSTAR":0.00095730422,"MEAN_MOTION_DOT":3.62e-6,"MEAN_MOTION_DDOT":0},{"OBJECT_NAME":"ONEWEB-0334","OBJECT_ID":"2021-083Q","EPOCH":"2025-09-10T18:02:08.667744","MEAN_MOTION":13.20771371,"ECCENTRICITY":9.233e-5,"INCLINATION":87.9273,"RA_OF_ASC_NODE":330.1731,"ARG_OF_PERICENTER":83.5843,"MEAN_ANOMALY":276.5395,"EPHEMERIS_TYPE":0,"CLASSIFICATION_TYPE":"U","NORAD_CAT_ID":49200,"ELEMENT_SET_NO":999,"REV_AT_EPOCH":19990,"BSTAR":-8.1989452e-5,"MEAN_MOTION_DOT":-2.0e-7,"MEAN_MOTION_DDOT":0}]
